{"type":"FeatureCollection","features":[{"type":"Feature","id":"mineral_occurrence_operating_mines.101426","geometry":{"type":"Point","coordinates":[148.0675,-35.2931]},"geometry_name":"geom","properties":{"occurrence_id":101426,"comm_type":"METMIN","operation":"Adelong","deposit_name":" Donkey Hill/Fletchers/Middle Reefs, Caledonian Reef, Currajong Reef, Challenger Mine, Victoria Reef, J.Tonking Workings, A.Bruce Workings","operation_state":"Operating","number_of_mines":7,"colour":"red"},"bbox":[148.0675,-35.2931,148.0675,-35.2931]},{"type":"Feature","id":"mineral_occurrence_operating_mines.219998","geometry":{"type":"Point","coordinates":[150.0125,-33.1108]},"geometry_name":"geom","properties":{"occurrence_id":219998,"comm_type":"COAL","operation":"Airly underground mine","deposit_name":" Airly Mine","operation_state":"Operating","number_of_mines":1,"colour":"black"},"bbox":[150.0125,-33.1108,150.0125,-33.1108]},{"type":"Feature","id":"mineral_occurrence_operating_mines.220017","geometry":{"type":"Point","coordinates":[150.7925,-34.2111]},"geometry_name":"geom","properties":{"occurrence_id":220017,"comm_type":"COAL","operation":"Appin underground mine","deposit_name":" Appin Mine, Westcliff Mine","operation_state":"Operating","number_of_mines":2,"colour":"black"},"bbox":[150.7925,-34.2111,150.7925,-34.2111]},{"type":"Feature","id":"mineral_occurrence_operating_mines.102472","geometry":{"type":"Point","coordinates":[146.8549,-34.3282]},"geometry_name":"geom","properties":{"occurrence_id":102472,"comm_type":"METMIN","operation":"Ardlethan","deposit_name":" Carpathia, Yithan, Bald Hill Alluvials, Ardlethan Tin Mine, White Crystal Zone, Carpathia Zone, Godfrey Zone, Keogh Zone, Ardlethan Tailings, Crystal Lead, North Road Lead","operation_state":"Operating","number_of_mines":11,"colour":"red"},"bbox":[146.8549,-34.3282,146.8549,-34.3282]},{"type":"Feature","id":"mineral_occurrence_operating_mines.220026","geometry":{"type":"Point","coordinates":[151.079,-32.4667]},"geometry_name":"geom","properties":{"occurrence_id":220026,"comm_type":"COAL","operation":"Ashton underground mine","deposit_name":" Ashton UG Mine","operation_state":"Operating","number_of_mines":1,"colour":"black"},"bbox":[151.079,-32.4667,151.079,-32.4667]},{"type":"Feature","id":"mineral_occurrence_operating_mines.218608","geometry":{"type":"Point","coordinates":[143.3401,-33.8681]},"geometry_name":"geom","properties":{"occurrence_id":218608,"comm_type":"MINSND","operation":"Atlas - Campaspe","deposit_name":" Campaspe Heavy Mineral Deposit, Atlas Heavy Mineral Deposit","operation_state":"Operating","number_of_mines":2,"colour":"orange"},"bbox":[143.3401,-33.8681,143.3401,-33.8681]},{"type":"Feature","id":"mineral_occurrence_operating_mines.219997","geometry":{"type":"Point","coordinates":[150.8307,-32.2705]},"geometry_name":"geom","properties":{"occurrence_id":219997,"comm_type":"COAL","operation":"Bengalla open cut mine","deposit_name":" Bengalla Mine","operation_state":"Operating","number_of_mines":1,"colour":"black"},"bbox":[150.8307,-32.2705,150.8307,-32.2705]},{"type":"Feature","id":"mineral_occurrence_operating_mines.181600","geometry":{"type":"Point","coordinates":[141.4459,-31.9865]},"geometry_name":"geom","properties":{"occurrence_id":181600,"comm_type":"METMIN","operation":"Broken Hill Operations","deposit_name":" Central Blocks, New Silver Peak, Potosi opencut and underground, Broken Hill Southern Operations Main Shaft, North Mine Upper, Flying Doctor, 11:30, Henry George, North Mine Deeps","operation_state":"Operating","number_of_mines":9,"colour":"red"},"bbox":[141.4459,-31.9865,141.4459,-31.9865]},{"type":"Feature","id":"mineral_occurrence_operating_mines.219995","geometry":{"type":"Point","coordinates":[151.5615,-32.8134]},"geometry_name":"geom","properties":{"occurrence_id":219995,"comm_type":"COAL","operation":"Bloomfield open cut mine","deposit_name":" Bloomfield Mine","operation_state":"Operating","number_of_mines":1,"colour":"black"},"bbox":[151.5615,-32.8134,151.5615,-32.8134]},{"type":"Feature","id":"mineral_occurrence_operating_mines.220009","geometry":{"type":"Point","coordinates":[150.1634,-30.6089]},"geometry_name":"geom","properties":{"occurrence_id":220009,"comm_type":"COAL","operation":"Boggabri open cut mine","deposit_name":" Boggabri Mine","operation_state":"Operating","number_of_mines":1,"colour":"black"},"bbox":[150.1634,-30.6089,150.1634,-30.6089]},{"type":"Feature","id":"mineral_occurrence_operating_mines.220003","geometry":{"type":"Point","coordinates":[151.0827,-32.6835]},"geometry_name":"geom","properties":{"occurrence_id":220003,"comm_type":"COAL","operation":"Bulga open cut mine","deposit_name":" Bulga OC Mine","operation_state":"Operating","number_of_mines":1,"colour":"black"},"bbox":[151.0827,-32.6835,151.0827,-32.6835]},{"type":"Feature","id":"mineral_occurrence_operating_mines.105439","geometry":{"type":"Point","coordinates":[149.0076,-33.4629]},"geometry_name":"geom","properties":{"occurrence_id":105439,"comm_type":"METMIN","operation":"Cadia Valley Operations","deposit_name":" Big Cadia, Cadia Hill Gold Mine, Little Cadia Mine, Cadia East Mine, Ridgeway mine, Cadia Extended (Cadia Quarry)","operation_state":"Operating","number_of_mines":6,"colour":"red"},"bbox":[149.0076,-33.4629,149.0076,-33.4629]},{"type":"Feature","id":"mineral_occurrence_operating_mines.220011","geometry":{"type":"Point","coordinates":[151.5498,-33.1631]},"geometry_name":"geom","properties":{"occurrence_id":220011,"comm_type":"COAL","operation":"Chain Valley underground mine","deposit_name":" Chain Valley Mine","operation_state":"Operating","number_of_mines":1,"colour":"black"},"bbox":[151.5498,-33.1631,151.5498,-33.1631]},{"type":"Feature","id":"mineral_occurrence_operating_mines.219999","geometry":{"type":"Point","coordinates":[150.2481,-33.4618]},"geometry_name":"geom","properties":{"occurrence_id":219999,"comm_type":"COAL","operation":"Clarence underground mine","deposit_name":" Clarence Mine","operation_state":"Operating","number_of_mines":1,"colour":"black"},"bbox":[150.2481,-33.4618,150.2481,-33.4618]},{"type":"Feature","id":"mineral_occurrence_operating_mines.103824","geometry":{"type":"Point","coordinates":[147.4067,-33.6368]},"geometry_name":"geom","properties":{"occurrence_id":103824,"comm_type":"METMIN","operation":"Cowal","deposit_name":" Cowal mine, Endeavour 41 West (J Walker zone)","operation_state":"Operating","number_of_mines":2,"colour":"red"},"bbox":[147.4067,-33.6368,147.4067,-33.6368]},{"type":"Feature","id":"mineral_occurrence_operating_mines.101673","geometry":{"type":"Point","coordinates":[145.7998,-31.4096]},"geometry_name":"geom","properties":{"occurrence_id":101673,"comm_type":"METMIN","operation":"CSA","deposit_name":" CSA mine","operation_state":"Operating","number_of_mines":1,"colour":"red"},"bbox":[145.7998,-31.4096,145.7998,-31.4096]},{"type":"Feature","id":"mineral_occurrence_operating_mines.220018","geometry":{"type":"Point","coordinates":[150.8097,-34.4315]},"geometry_name":"geom","properties":{"occurrence_id":220018,"comm_type":"COAL","operation":"Dendrobium underground mine","deposit_name":" Dendrobium Mine","operation_state":"Operating","number_of_mines":1,"colour":"black"},"bbox":[150.8097,-34.4315,150.8097,-34.4315]},{"type":"Feature","id":"mineral_occurrence_operating_mines.101625","geometry":{"type":"Point","coordinates":[145.655,-31.1632]},"geometry_name":"geom","properties":{"occurrence_id":101625,"comm_type":"METMIN","operation":"Endeavor","deposit_name":" Endeavor (Elura) mine","operation_state":"Operating","number_of_mines":1,"colour":"red"},"bbox":[145.655,-31.1632,145.655,-31.1632]},{"type":"Feature","id":"mineral_occurrence_operating_mines.105182","geometry":{"type":"Point","coordinates":[149.4123,-33.0434]},"geometry_name":"geom","properties":{"occurrence_id":105182,"comm_type":"METMIN","operation":"Hill End","deposit_name":" Reward Mine, Reward Gold Mine","operation_state":"Operating","number_of_mines":2,"colour":"red"},"bbox":[149.4123,-33.0434,149.4123,-33.0434]},{"type":"Feature","id":"mineral_occurrence_operating_mines.220015","geometry":{"type":"Point","coordinates":[151.0015,-32.5173]},"geometry_name":"geom","properties":{"occurrence_id":220015,"comm_type":"COAL","operation":"Hunter Valley Operations open cut mine","deposit_name":" Hunter Valley Operations South, Hunter Valley Operations North","operation_state":"Operating","number_of_mines":2,"colour":"black"},"bbox":[151.0015,-32.5173,151.0015,-32.5173]},{"type":"Feature","id":"mineral_occurrence_operating_mines.220000","geometry":{"type":"Point","coordinates":[151.4623,-33.1175]},"geometry_name":"geom","properties":{"occurrence_id":220000,"comm_type":"COAL","operation":"Mandalong underground mine","deposit_name":" Mandalong Mine","operation_state":"Operating","number_of_mines":1,"colour":"black"},"bbox":[151.4623,-33.1175,151.4623,-33.1175]},{"type":"Feature","id":"mineral_occurrence_operating_mines.220020","geometry":{"type":"Point","coordinates":[150.1287,-30.5551]},"geometry_name":"geom","properties":{"occurrence_id":220020,"comm_type":"COAL","operation":"Maules Creek open cut mine","deposit_name":" Maules Creek Mine","operation_state":"Operating","number_of_mines":1,"colour":"black"},"bbox":[150.1287,-30.5551,150.1287,-30.5551]},{"type":"Feature","id":"mineral_occurrence_operating_mines.220012","geometry":{"type":"Point","coordinates":[150.9924,-34.1877]},"geometry_name":"geom","properties":{"occurrence_id":220012,"comm_type":"COAL","operation":"Metropolitan underground mine","deposit_name":" Metropolitan Mine","operation_state":"Operating","number_of_mines":1,"colour":"black"},"bbox":[150.9924,-34.1877,150.9924,-34.1877]},{"type":"Feature","id":"mineral_occurrence_operating_mines.102048","geometry":{"type":"Point","coordinates":[146.9877,-32.5754]},"geometry_name":"geom","properties":{"occurrence_id":102048,"comm_type":"METMIN","operation":"Mineral Hill","deposit_name":" Iodide Mine, Red Terror, Mineral Hill - Parkers Hill, Ashes Shaft (5001open cut), Mineral Hill mine (Eastern Ore Zone), Southern Ore Zone, Mineral Hill - Jacks Hut, Pearse South, Pearse North","operation_state":"Operating","number_of_mines":9,"colour":"red"},"bbox":[146.9877,-32.5754,146.9877,-32.5754]},{"type":"Feature","id":"mineral_occurrence_operating_mines.220005","geometry":{"type":"Point","coordinates":[150.689,-32.2925]},"geometry_name":"geom","properties":{"occurrence_id":220005,"comm_type":"COAL","operation":"Mangoola open cut mine","deposit_name":" Mangoola Mine","operation_state":"Operating","number_of_mines":1,"colour":"black"},"bbox":[150.689,-32.2925,150.689,-32.2925]},{"type":"Feature","id":"mineral_occurrence_operating_mines.220029","geometry":{"type":"Point","coordinates":[149.7641,-32.288]},"geometry_name":"geom","properties":{"occurrence_id":220029,"comm_type":"COAL","operation":"Moolarben open cut mine","deposit_name":" Moolarben OC Mine","operation_state":"Operating","number_of_mines":1,"colour":"black"},"bbox":[149.7641,-32.288,149.7641,-32.288]},{"type":"Feature","id":"mineral_occurrence_operating_mines.220051","geometry":{"type":"Point","coordinates":[149.7741,-32.2856]},"geometry_name":"geom","properties":{"occurrence_id":220051,"comm_type":"COAL","operation":"Moolarben underground mine","deposit_name":" Moolarben UG Mine","operation_state":"Operating","number_of_mines":1,"colour":"black"},"bbox":[149.7741,-32.2856,149.7741,-32.2856]},{"type":"Feature","id":"mineral_occurrence_operating_mines.219994","geometry":{"type":"Point","coordinates":[150.8471,-32.3377]},"geometry_name":"geom","properties":{"occurrence_id":219994,"comm_type":"COAL","operation":"Mount Arthur open cut mine","deposit_name":" Mount Arthur Mine, Mount Arthur UG Proposal","operation_state":"Operating","number_of_mines":2,"colour":"black"},"bbox":[150.8471,-32.3377,150.8471,-32.3377]},{"type":"Feature","id":"mineral_occurrence_operating_mines.220006","geometry":{"type":"Point","coordinates":[151.0907,-32.3976]},"geometry_name":"geom","properties":{"occurrence_id":220006,"comm_type":"COAL","operation":"Mount Owen open cut mine","deposit_name":" Mount Owen Mine, Ravensworth East OC Mine","operation_state":"Operating","number_of_mines":2,"colour":"black"},"bbox":[151.0907,-32.3976,151.0907,-32.3976]},{"type":"Feature","id":"mineral_occurrence_operating_mines.220194","geometry":{"type":"Point","coordinates":[150.8341,-32.2351]},"geometry_name":"geom","properties":{"occurrence_id":220194,"comm_type":"COAL","operation":"Mount Pleasant open cut mine","deposit_name":" Mount Pleasant Mine","operation_state":"Operating","number_of_mines":1,"colour":"black"},"bbox":[150.8341,-32.2351,150.8341,-32.2351]},{"type":"Feature","id":"mineral_occurrence_operating_mines.220057","geometry":{"type":"Point","coordinates":[151.0702,-32.6452]},"geometry_name":"geom","properties":{"occurrence_id":220057,"comm_type":"COAL","operation":"Mount Thorley Warkworth open cut mine","deposit_name":" Warkworth Mine, Mount Thorley Mine","operation_state":"Operating","number_of_mines":2,"colour":"black"},"bbox":[151.0702,-32.6452,151.0702,-32.6452]},{"type":"Feature","id":"mineral_occurrence_operating_mines.220001","geometry":{"type":"Point","coordinates":[151.5674,-33.0635]},"geometry_name":"geom","properties":{"occurrence_id":220001,"comm_type":"COAL","operation":"Myuna underground mine","deposit_name":" Myuna Mine","operation_state":"Operating","number_of_mines":1,"colour":"black"},"bbox":[151.5674,-33.0635,151.5674,-33.0635]},{"type":"Feature","id":"mineral_occurrence_operating_mines.220021","geometry":{"type":"Point","coordinates":[149.8949,-30.517]},"geometry_name":"geom","properties":{"occurrence_id":220021,"comm_type":"COAL","operation":"Narrabri underground mine","deposit_name":" Narrabri North Mine","operation_state":"Operating","number_of_mines":1,"colour":"black"},"bbox":[149.8949,-30.517,149.8949,-30.517]},{"type":"Feature","id":"mineral_occurrence_operating_mines.102522","geometry":{"type":"Point","coordinates":[148.0474,-32.9417]},"geometry_name":"geom","properties":{"occurrence_id":102522,"comm_type":"METMIN","operation":"Northparkes","deposit_name":" Endeavour 22, Endeavour 48, Endeavour 28NE, Endeavour 28 Forest, Endeavour 31, Endeavour 27, Northparkes mine - Endeavour 26 North","operation_state":"Operating","number_of_mines":7,"colour":"red"},"bbox":[148.0474,-32.9417,148.0474,-32.9417]},{"type":"Feature","id":"mineral_occurrence_operating_mines.218515","geometry":{"type":"Point","coordinates":[141.4561,-31.9664]},"geometry_name":"geom","properties":{"occurrence_id":218515,"comm_type":"METMIN","operation":"Rasp","deposit_name":" CML 7 - Rasp mine","operation_state":"Operating","number_of_mines":1,"colour":"red"},"bbox":[141.4561,-31.9664,141.4561,-31.9664]},{"type":"Feature","id":"mineral_occurrence_operating_mines.220055","geometry":{"type":"Point","coordinates":[151.0392,-32.4703]},"geometry_name":"geom","properties":{"occurrence_id":220055,"comm_type":"COAL","operation":"Ravensworth open cut mine","deposit_name":" Ravensworth Surface Operations, Ravensworth North OC Mine","operation_state":"Operating","number_of_mines":2,"colour":"black"},"bbox":[151.0392,-32.4703,151.0392,-32.4703]},{"type":"Feature","id":"mineral_occurrence_operating_mines.219996","geometry":{"type":"Point","coordinates":[151.1455,-32.5131]},"geometry_name":"geom","properties":{"occurrence_id":219996,"comm_type":"COAL","operation":"Rixs Creek open cut mine","deposit_name":" Rixs Creek Mine","operation_state":"Operating","number_of_mines":1,"colour":"black"},"bbox":[151.1455,-32.5131,151.1455,-32.5131]},{"type":"Feature","id":"mineral_occurrence_operating_mines.220002","geometry":{"type":"Point","coordinates":[150.1066,-33.4035]},"geometry_name":"geom","properties":{"occurrence_id":220002,"comm_type":"COAL","operation":"Springvale underground mine","deposit_name":" Springvale Mine","operation_state":"Operating","number_of_mines":1,"colour":"black"},"bbox":[150.1066,-33.4035,150.1066,-33.4035]},{"type":"Feature","id":"mineral_occurrence_operating_mines.101738","geometry":{"type":"Point","coordinates":[145.8772,-31.5641]},"geometry_name":"geom","properties":{"occurrence_id":101738,"comm_type":"METMIN","operation":"Peak Gold Mines","deposit_name":" Chesneys Folly, Dapville, New Cobar Mine, Chesney Mine, New Occidental Mine, Peak Operations, Perseverance mine (The Peak)","operation_state":"Operating","number_of_mines":7,"colour":"red"},"bbox":[145.8772,-31.5641,145.8772,-31.5641]},{"type":"Feature","id":"mineral_occurrence_operating_mines.185335","geometry":{"type":"Point","coordinates":[148.2166,-32.5816]},"geometry_name":"geom","properties":{"occurrence_id":185335,"comm_type":"METMIN","operation":"Tomingley","deposit_name":" Wyoming, Wyoming 1, Wyoming 2, Wyoming 3, Caloma 1, Caloma 2, San Antonio, Roswell","operation_state":"Operating","number_of_mines":8,"colour":"red"},"bbox":[148.2166,-32.5816,148.2166,-32.5816]},{"type":"Feature","id":"mineral_occurrence_operating_mines.104079","geometry":{"type":"Point","coordinates":[146.7172,-31.3905]},"geometry_name":"geom","properties":{"occurrence_id":104079,"comm_type":"METMIN","operation":"Tritton","deposit_name":" Avoca Tank, North East mine (Tritton North project), Larsen mine (Tritton North project), Murrawombie, Budgerygar Nth Mine, Budgerygar Mine, Budgery Copper Mine, Tritton Mine, Constellation","operation_state":"Operating","number_of_mines":9,"colour":"red"},"bbox":[146.7172,-31.3905,146.7172,-31.3905]},{"type":"Feature","id":"mineral_occurrence_operating_mines.220023","geometry":{"type":"Point","coordinates":[150.1637,-30.6328]},"geometry_name":"geom","properties":{"occurrence_id":220023,"comm_type":"COAL","operation":"Tarrawonga open cut mine","deposit_name":" Tarrawonga Mine","operation_state":"Operating","number_of_mines":1,"colour":"black"},"bbox":[150.1637,-30.6328,150.1637,-30.6328]},{"type":"Feature","id":"mineral_occurrence_operating_mines.220053","geometry":{"type":"Point","coordinates":[149.7469,-32.2394]},"geometry_name":"geom","properties":{"occurrence_id":220053,"comm_type":"COAL","operation":"Ulan underground mine","deposit_name":" Ulan UG Mine","operation_state":"Operating","number_of_mines":1,"colour":"black"},"bbox":[149.7469,-32.2394,149.7469,-32.2394]},{"type":"Feature","id":"mineral_occurrence_operating_mines.220054","geometry":{"type":"Point","coordinates":[149.7469,-32.2394]},"geometry_name":"geom","properties":{"occurrence_id":220054,"comm_type":"COAL","operation":"Ulan West underground mine","deposit_name":" Ulan West UG Mine","operation_state":"Operating","number_of_mines":1,"colour":"black"},"bbox":[149.7469,-32.2394,149.7469,-32.2394]},{"type":"Feature","id":"mineral_occurrence_operating_mines.220052","geometry":{"type":"Point","coordinates":[150.9608,-32.5661]},"geometry_name":"geom","properties":{"occurrence_id":220052,"comm_type":"COAL","operation":"Wambo underground mine","deposit_name":" Wambo UG Mine","operation_state":"Operating","number_of_mines":1,"colour":"black"},"bbox":[150.9608,-32.5661,150.9608,-32.5661]},{"type":"Feature","id":"mineral_occurrence_operating_mines.220014","geometry":{"type":"Point","coordinates":[149.8699,-32.3328]},"geometry_name":"geom","properties":{"occurrence_id":220014,"comm_type":"COAL","operation":"Wilpinjong open cut mine","deposit_name":" Wilpinjong Mine","operation_state":"Operating","number_of_mines":1,"colour":"black"},"bbox":[149.8699,-32.3328,149.8699,-32.3328]},{"type":"Feature","id":"mineral_occurrence_operating_mines.105873","geometry":{"type":"Point","coordinates":[149.5717,-35.0645]},"geometry_name":"geom","properties":{"occurrence_id":105873,"comm_type":"METMIN","operation":"Woodlawn","deposit_name":" Woodlawn mine","operation_state":"Operating","number_of_mines":1,"colour":"red"},"bbox":[149.5717,-35.0645,149.5717,-35.0645]},{"type":"Feature","id":"mineral_occurrence_operating_mines.220212","geometry":{"type":"Point","coordinates":[151.0683,-32.4301]},"geometry_name":"geom","properties":{"occurrence_id":220212,"comm_type":"COAL","operation":"Glendell open cut mine","deposit_name":" Glendell Extension Proposal, Glendell Mine","operation_state":"Operating","number_of_mines":2,"colour":"black"},"bbox":[151.0683,-32.4301,151.0683,-32.4301]},{"type":"Feature","id":"mineral_occurrence_operating_mines.220230","geometry":{"type":"Point","coordinates":[150.9687,-32.5704]},"geometry_name":"geom","properties":{"occurrence_id":220230,"comm_type":"COAL","operation":"United Wambo open cut proposal","deposit_name":" United Wambo OC Mine","operation_state":"Operating","number_of_mines":1,"colour":"black"},"bbox":[150.9687,-32.5704,150.9687,-32.5704]},{"type":"Feature","id":"mineral_occurrence_operating_mines.220251","geometry":{"type":"Point","coordinates":[150.2022,-30.759]},"geometry_name":"geom","properties":{"occurrence_id":220251,"comm_type":"COAL","operation":"Vickery open cut mine","deposit_name":" Vickery Mine","operation_state":"Operating","number_of_mines":1,"colour":"black"},"bbox":[150.2022,-30.759,150.2022,-30.759]},{"type":"Feature","id":"mineral_occurrence_operating_mines.220634","geometry":{"type":"Point","coordinates":[150.8499,-32.4249]},"geometry_name":"geom","properties":{"occurrence_id":220634,"comm_type":"COAL","operation":"Maxwell Underground","deposit_name":" Maxwell Underground","operation_state":"Operating","number_of_mines":1,"colour":"black"},"bbox":[150.8499,-32.4249,150.8499,-32.4249]},{"type":"Feature","id":"mineral_occurrence_operating_mines.220216","geometry":{"type":"Point","coordinates":[146.3008,-32.2019]},"geometry_name":"geom","properties":{"occurrence_id":220216,"comm_type":"METMIN","operation":"Federation","deposit_name":" Federation","operation_state":"Operating","number_of_mines":1,"colour":"red"},"bbox":[146.3008,-32.2019,146.3008,-32.2019]}],"totalFeatures":52,"numberMatched":52,"numberReturned":52,"timeStamp":"2026-09-10T23:59:26.594Z","crs":{"type":"name","properties":{"name":"urn:ogc:def:crs:EPSG::4326"}},"bbox":[141.4459,-35.2931,151.5674,-30.517]}